{"type":"FeatureCollection","features":[{"type":"Feature","id":1,"geometry":{"type":"Point","coordinates":[16.606837100000064,49.195060200000057]},"properties":{"OBJECTID":1,"nazev":"Vazební věznice a ÚPVZD Brno","druh":"vazební věznice a ÚpVZD","otevreni":1956,"adresa":"Jihlavská 410/12, 62500 Brno - Bohunice, Česko","sirka":49.1950602,"delka":16.6068371,"zarazeni":"Ostraha, střední a vysoký stupeň","specializace":null,"kraj":"Jihomoravský kraj","mesto":"Brno","personal":577}},{"type":"Feature","id":2,"geometry":{"type":"Point","coordinates":[14.473418600000059,48.971466100000043]},"properties":{"OBJECTID":2,"nazev":"Vazební věznice České Budějovice","druh":"vazební věznice","otevreni":1905,"adresa":"Goethova 1929/1, 37001 České Budějovice 7, Česko","sirka":48.971466100000001,"delka":14.4734186,"zarazeni":"Ostraha, střední a vysoký stupeň","specializace":"výkon trestu odsouzených trvale pracovně nezařaditelných","kraj":"Jihočeský kraj","mesto":"České Budějovice","personal":267}},{"type":"Feature","id":3,"geometry":{"type":"Point","coordinates":[15.839140200000031,50.210526700000059]},"properties":{"OBJECTID":3,"nazev":"Vazební věznice Hradec Králové","druh":"vazební věznice","otevreni":1935,"adresa":"Hradební 860/7, 50003 Hradec Králové, Česko","sirka":50.210526700000003,"delka":15.839140199999999,"zarazeni":"Ostraha, nízký a střední stupeň","specializace":"výkon trestu odsouzených s poruchou osobnosti a chování způsobenou užíváním návykových látek","kraj":"Královéhradecký kraj","mesto":"Hradec Králové","personal":341}},{"type":"Feature","id":4,"geometry":{"type":"Point","coordinates":[15.04943940000004,50.770400700000039]},"properties":{"OBJECTID":4,"nazev":"Vazební věznice Liberec","druh":"vazební věznice","otevreni":1877,"adresa":"Pelhřimovská 3, 460 01 Liberec","sirka":50.770400700000003,"delka":15.049439400000001,"zarazeni":"Ostraha, střední a vysoký stupeň","specializace":"výkon trestu odsouzených trvale pracovně nezařaditelných,\r\nvýkon trestu odsouzených s poruchami duševními a poruchami chování,\r\nvýkon trestu odsouzených s poruchami duševními a poruchami chování s individuálním zacházením","kraj":"Liberecký kraj","mesto":"Liberec","personal":279}},{"type":"Feature","id":5,"geometry":{"type":"Point","coordinates":[14.135399200000052,50.536096900000075]},"properties":{"OBJECTID":5,"nazev":"Vazební věznice Litoměřice","druh":"vazební věznice","otevreni":1907,"adresa":"Veitova 1, 412 81 Litoměřice","sirka":50.536096899999997,"delka":14.1353992,"zarazeni":"Ostraha, střední a vysoký stupeň","specializace":"výkon trestu odsouzených trvale pracovně nezařaditelných","kraj":"Ústecký kraj","mesto":"Litoměřice","personal":321}},{"type":"Feature","id":6,"geometry":{"type":"Point","coordinates":[17.248056600000041,49.591836300000068]},"properties":{"OBJECTID":6,"nazev":"Vazební věznice Olomouc","druh":"vazební věznice","otevreni":1902,"adresa":"Švermova 2, 771 57 Olomouc","sirka":49.591836299999997,"delka":17.248056600000002,"zarazeni":"Ostraha, střední a vysoký stupeň","specializace":null,"kraj":"Olomoucký kraj","mesto":"Olomouc","personal":318}},{"type":"Feature","id":7,"geometry":{"type":"Point","coordinates":[18.294449600000064,49.838277900000037]},"properties":{"OBJECTID":7,"nazev":"Vazební věznice Ostrava","druh":"vazební věznice","otevreni":1929,"adresa":"Havlíčkovo nábřeží 34a, 701 28 Moravská Ostrava a Přívoz","sirka":49.838277900000001,"delka":18.2944496,"zarazeni":"Ostraha, střední a vysoký stupeň","specializace":"výkon trestu odsouzených trvale pracovně nezařaditelných","kraj":"Moravskoslezský kraj","mesto":"Ostrava","personal":443}},{"type":"Feature","id":8,"geometry":{"type":"Point","coordinates":[14.432081200000027,50.057223000000079]},"properties":{"OBJECTID":8,"nazev":"Vazební věznice a ÚPVZD Praha Pankrác","druh":"vazební věznice a ÚpVZD","otevreni":1889,"adresa":"Soudní 988/1, 140 57 Praha 4","sirka":50.057223,"delka":14.432081200000001,"zarazeni":"Ostraha, mírný, střední a vysoký stupeň","specializace":null,"kraj":"Hlavní město Praha","mesto":"Praha","personal":574}},{"type":"Feature","id":9,"geometry":{"type":"Point","coordinates":[14.312421000000029,50.081546400000036]},"properties":{"OBJECTID":9,"nazev":"Vazební věznice Praha Ruzyně","druh":"vazební věznice","otevreni":1935,"adresa":"Staré náměstí 3, 161 02 Praha 6","sirka":50.081546400000001,"delka":14.312421000000001,"zarazeni":"Ostraha, nízký, střední a vysoký stupeň","specializace":"výkon trestu odsouzených trvale pracovně nezařaditelných","kraj":"Hlavní město Praha","mesto":"Praha","personal":574}},{"type":"Feature","id":10,"geometry":{"type":"Point","coordinates":[13.763651800000048,50.447752200000082]},"properties":{"OBJECTID":10,"nazev":"Věznice Bělušice","druh":"věznice","otevreni":1958,"adresa":"Bělušice 66, 431 01 Bělušice 66","sirka":50.447752199999996,"delka":13.7636518,"zarazeni":"Ostraha, střední a vysoký stupeň, zvýšená ostraha","specializace":"výkon trestu odsouzených s poruchou osobnosti a chování způsobenou užíváním návykových látek","kraj":"Ústecký kraj","mesto":"Bělušice","personal":255}},{"type":"Feature","id":11,"geometry":{"type":"Point","coordinates":[16.881011500000056,48.761519300000032]},"properties":{"OBJECTID":11,"nazev":"Věznice Břeclav","druh":"věznice","otevreni":1997,"adresa":"Za Bankou 3, 690 02 Břeclav","sirka":48.761519300000003,"delka":16.8810115,"zarazeni":"Ostraha, nízký, střední a vysoký stupeň","specializace":"výkon trestu odsouzených trvale pracovně nezařaditelných","kraj":"Jihomoravský kraj","mesto":"Břeclav","personal":232}},{"type":"Feature","id":12,"geometry":{"type":"Point","coordinates":[18.302944300000036,49.862914300000057]},"properties":{"OBJECTID":12,"nazev":"Věznice Heřmanice","druh":"věznice","otevreni":1959,"adresa":"Orlovská 670/35, 713 02 Ostrava","sirka":49.8629143,"delka":18.3029443,"zarazeni":"Ostraha, střední a vysoký stupeň","specializace":"pro výkon trestu odsouzených s mentální retardací\r\npro výkon ochranného léčení protialkoholního a léčení pro patologické hráčství","kraj":"Moravskoslezský kraj","mesto":"Heřmanice","personal":312}},{"type":"Feature","id":13,"geometry":{"type":"Point","coordinates":[12.791904900000077,50.128125200000056]},"properties":{"OBJECTID":13,"nazev":"Věznice Horní Slavkov","druh":"věznice","otevreni":1963,"adresa":"Hasičská 785, 357 31 Horní Slavkov","sirka":50.128125199999999,"delka":12.7919049,"zarazeni":"Ostraha, střední a vysoký stupeň","specializace":"výkon trestu odsouzených trvale pracovně nezařaditelných\r\nvýkon trestu odsouzených s poruchami duševními a poruchami chování\r\nvýkon trestu odsouzených s poruchou osobnosti a chování způsobenou užíváním návykových látek,\r\noddíl se zesíleným stavebně techni","kraj":"Karlovarský kraj","mesto":"Horní Slavkov","personal":279}},{"type":"Feature","id":14,"geometry":{"type":"Point","coordinates":[14.850094600000034,50.255495100000076]},"properties":{"OBJECTID":14,"nazev":"Věznice Jiřice","druh":"věznice","otevreni":1994,"adresa":"Ruská cesta 404, 289 22 Jiřice","sirka":50.255495099999997,"delka":14.8500946,"zarazeni":"Ostraha, nízký, střední a vysoký stupeň","specializace":"výkon trestu odsouzených s poruchami duševními a poruchami chování\r\nvýkon trestu odsouzených trvale pracovně nezařaditelných","kraj":"Středočeský kraj","mesto":"Jiřice","personal":270}},{"type":"Feature","id":15,"geometry":{"type":"Point","coordinates":[18.546678200000031,49.85182640000005]},"properties":{"OBJECTID":15,"nazev":"Věznice Karviná","druh":"věznice","otevreni":1916,"adresa":"Fryštátská 178, 733 01 Karviná - Fryštát","sirka":49.8518264,"delka":18.546678199999999,"zarazeni":"Zvýšená ostraha","specializace":"specializovaný oddíl pro výkon trestu odsouzených s mentální retardací, specializovaný oddíl pro výkon trestu trvale pracovně nezařaditelných odsouzených, specializovaný oddíl pro výkon trestu odsouzených p","kraj":"Moravskoslezský kraj","mesto":"Karviná","personal":154}},{"type":"Feature","id":16,"geometry":{"type":"Point","coordinates":[16.548528600000054,49.320363400000076]},"properties":{"OBJECTID":16,"nazev":"Věznice Kuřim","druh":"věznice","otevreni":1957,"adresa":"Blanenská 1191, 664 34 Kuřim","sirka":49.320363399999998,"delka":16.548528600000001,"zarazeni":"Ostraha, střední a vysoký stupeň","specializace":"výkon ochranného léčení sexuologického\r\nvýkon trestu odsouzených s poruchou osobnosti a chování způsobenou užíváním návykových látek,\r\nvýkon trestu odsouzených s poruchou duševní a poruchou chování","kraj":"Jihomoravský kraj","mesto":"Kuřim","personal":242}},{"type":"Feature","id":17,"geometry":{"type":"Point","coordinates":[12.556773600000042,50.114502200000061]},"properties":{"OBJECTID":17,"nazev":"Věznice Kynšperk nad Ohří","druh":"věznice","otevreni":1999,"adresa":"Zlatá 52, 357 51 Kynšperk nad Ohří","sirka":50.114502199999997,"delka":12.5567736,"zarazeni":"Ostraha, střední a vysoký stupeň","specializace":"výkon trestu odsouzených trvale pracovně nezařaditelných","kraj":"Karlovarský kraj","mesto":"Kynšperk nad Ohří","personal":285}},{"type":"Feature","id":18,"geometry":{"type":"Point","coordinates":[16.846164600000066,49.796288100000027]},"properties":{"OBJECTID":18,"nazev":"Věznice Mírov","druh":"věznice","otevreni":1858,"adresa":"Mírov 27, 789 01 Mírov","sirka":49.796288099999998,"delka":16.846164600000002,"zarazeni":"Zvýšená ostraha","specializace":"výkon trestu odsouzených s poruchami duševními a poruchami chování\r\noddíl se zesíleným stavebně technickým zabezpečením","kraj":"Olomoucký kraj","mesto":"Mírov","personal":260}},{"type":"Feature","id":19,"geometry":{"type":"Point","coordinates":[13.472472500000038,50.345561100000054]},"properties":{"OBJECTID":19,"nazev":"Věznice Nové Sedlo","druh":"věznice","otevreni":1958,"adresa":"Hlavní 2, 438 01 Nové Sedlo","sirka":50.345561099999998,"delka":13.4724725,"zarazeni":"Ostraha, nízký, střední a vysoký stupeň","specializace":"výkon trestu odsouzených s poruchou osobnosti a chování způsobenou užíváním návykových látek","kraj":"Ústecký kraj","mesto":"Nové Sedlo","personal":307}},{"type":"Feature","id":20,"geometry":{"type":"Point","coordinates":[16.087980800000025,50.532020000000045]},"properties":{"OBJECTID":20,"nazev":"Věznice Odolov","druh":"věznice","otevreni":1993,"adresa":"Odolov 41, 542 34 Malé Svatoňovice","sirka":50.532020000000003,"delka":16.0879808,"zarazeni":"Ostraha, nízký a střední stupeň","specializace":null,"kraj":"Královéhradecký kraj","mesto":"Malé Svatoňovice","personal":145}},{"type":"Feature","id":21,"geometry":{"type":"Point","coordinates":[17.902417800000023,49.939098600000079]},"properties":{"OBJECTID":21,"nazev":"Věznice a ÚPVZD Opava","druh":"věznice a ÚpVZD","otevreni":1888,"adresa":"Krnovská 68, 746 49 Opava","sirka":49.939098600000001,"delka":17.902417799999998,"zarazeni":"Ostraha, zabezpečovací detence","specializace":"výkon ochranného léčení protitoxikomanického, protialkoholního a léčení pro patologické hráčství,\r\nvýkon trestu odsouzených s poruchami duševními a poruchami chování s individuálním zacházením,\r\noddíl se zesíleným stavebně technickým zabezpečením","kraj":"Moravskoslezský kraj","mesto":"Opava","personal":284}},{"type":"Feature","id":22,"geometry":{"type":"Point","coordinates":[13.548903200000041,50.11154700000003]},"properties":{"OBJECTID":22,"nazev":"Věznice Oráčov","druh":"věznice","otevreni":1963,"adresa":"Oráčov 159, 270 32 Oráčov","sirka":50.111547000000002,"delka":13.5489032,"zarazeni":"Ostraha, střední a vysoký stupeň","specializace":null,"kraj":"Středočeský kraj","mesto":"Oráčov","personal":216}},{"type":"Feature","id":23,"geometry":{"type":"Point","coordinates":[12.955536700000039,50.330467000000056]},"properties":{"OBJECTID":23,"nazev":"Věznice Ostrov","druh":"věznice","otevreni":1989,"adresa":"Vykmanov 22, 363 50 Ostrov","sirka":50.330466999999999,"delka":12.9555367,"zarazeni":"Ostraha, střední a vysoký stupeň","specializace":"výkon trestu odsouzených s poruchou osobnosti a chování způsobenou užíváním návykových látek\r\nvýkon trestu odsouzených trvale pracovně nezařaditelných\r\nvýkon ochranného léčení protitoxikomanického","kraj":"Karlovarský kraj","mesto":"Ostrov","personal":425}},{"type":"Feature","id":24,"geometry":{"type":"Point","coordinates":[15.781199400000048,50.034309200000052]},"properties":{"OBJECTID":24,"nazev":"Věznice Pardubice","druh":"věznice","otevreni":1891,"adresa":"Husova 194, 530 44 Pardubice","sirka":50.034309200000003,"delka":15.7811994,"zarazeni":"Ostraha, nízký, střední a vysoký stupeň","specializace":"výkon trestu odsouzených trvale pracovně nezařaditelných\r\nvýkon trestního opatření odnětí svobody - mladiství","kraj":"Pardubický kraj","mesto":"Pardubice","personal":280}},{"type":"Feature","id":25,"geometry":{"type":"Point","coordinates":[13.359215300000074,49.723149500000034]},"properties":{"OBJECTID":25,"nazev":"Věznice Plzeň","druh":"věznice","otevreni":1878,"adresa":"Klatovská třída 202, 306 35 Plzeň","sirka":49.723149499999998,"delka":13.359215300000001,"zarazeni":"Ostraha","specializace":"výkon trestu odsouzených s poruchou osobnosti a chování způsobenou užíváním návykových látek,\r\nvýkon trestu odsouzených trvale pracovně nezařaditelných","kraj":"Plzeňský kraj","mesto":"Plzeň","personal":556}},{"type":"Feature","id":26,"geometry":{"type":"Point","coordinates":[13.998944900000026,49.685432000000048]},"properties":{"OBJECTID":26,"nazev":"Věznice Příbram","druh":"věznice","otevreni":1953,"adresa":"Dubenec 100, 261 15 Příbram","sirka":49.685431999999999,"delka":13.9989449,"zarazeni":"Ostraha, nízký, střední a vysoký stupeň","specializace":"výkon trestu odsouzených s poruchou osobnosti a chování způsobenou užíváním návykových látek","kraj":"Středočeský kraj","mesto":"Příbram","personal":310}},{"type":"Feature","id":27,"geometry":{"type":"Point","coordinates":[16.260630300000059,49.206230400000038]},"properties":{"OBJECTID":27,"nazev":"Věznice Rapotice","druh":"věznice","otevreni":2009,"adresa":"Lesní Jakubov 44, 675 71 Náměšť nad Oslavou","sirka":49.206230400000003,"delka":16.260630299999999,"zarazeni":"Ostraha, střední a vysoký stupeň","specializace":"výkon trestu odsouzených trvale pracovně nezařaditelných","kraj":"Jihomoravský kraj","mesto":"Náměšť nad Oslavou","personal":269}},{"type":"Feature","id":28,"geometry":{"type":"Point","coordinates":[15.139742100000035,50.743583500000057]},"properties":{"OBJECTID":28,"nazev":"Věznice Rýnovice","druh":"věznice","otevreni":1968,"adresa":"Belgická 3765/11, 466 05 Jablonec nad Nisou – Rýnovice","sirka":50.7435835,"delka":15.139742099999999,"zarazeni":"Ostraha, střední a vysoký stupeň","specializace":"výkon ochranného léčení protitoxikomanického a protialkoholního,\r\nvýkon trestu odsouzených s poruchami duševními a poruchami chování s individuálním zacházením,\r\nvýkon trestu odsouzených trvale pracovně nezařaditelných,\r\noddíl se zesíleným stavebně techni","kraj":"Liberecký kraj","mesto":"Rýnovice","personal":244}},{"type":"Feature","id":29,"geometry":{"type":"Point","coordinates":[14.809383100000048,50.695949400000075]},"properties":{"OBJECTID":29,"nazev":"Věznice Stráž pod Ralskem","druh":"věznice","otevreni":1973,"adresa":"Máchova 260, 471 27 Stráž pod Ralskem","sirka":50.695949400000003,"delka":14.8093831,"zarazeni":"Ostraha, střední a vysoký stupeň","specializace":"výkon trestu odsouzených s mentální retardací\r\nvýkon trestu odsouzených příslušníků bezpečnostních sborů, vojáků z povolání a strážníků obecní policie\r\noddíl se zesíleným stavebně technickým zabezpečením","kraj":"Liberecký kraj","mesto":"Stráž pod Ralskem","personal":288}},{"type":"Feature","id":30,"geometry":{"type":"Point","coordinates":[15.391527800000063,49.67087500000008]},"properties":{"OBJECTID":30,"nazev":"Věznice Světlá nad Sázavou","druh":"věznice","otevreni":2000,"adresa":"Rozkoš 990, 582 91 Světlá nad Sázavou","sirka":49.670875000000002,"delka":15.3915278,"zarazeni":"Ostraha, nízký, střední a vysoký stupeň","specializace":"výkon vazby matek nezletilých dětí\r\nvýkon trestního opatření pro odsouzené ženy\r\nvýkon trestu odsouzených matek nezletilých dětí ve věku od jednoho do zpravidla tří let věku dítěte,\r\nvýkon trestu odsouzených trvale pracovně nezařaditelných\r\nvýkon trestu o","kraj":"Kraj Vysočina","mesto":"Světlá nad Sázavou","personal":323}},{"type":"Feature","id":31,"geometry":{"type":"Point","coordinates":[15.387599500000022,50.455064700000037]},"properties":{"OBJECTID":31,"nazev":"Věznice Valdice","druh":"věznice","otevreni":1857,"adresa":"Nám. Míru 55, 507 11 Valdice","sirka":50.455064700000001,"delka":15.3875995,"zarazeni":"Zvýšená ostraha","specializace":"výkon trestu odsouzených trvale pracovně nezařaditelných\r\nvýkon trestu odsouzených s poruchami duševními a poruchami chování\r\nvýkon trestu odsouzených s poruchou osobnosti a chování způsobenou užíváním návykových látek,\r\noddíl se zesíleným stavebně techni","kraj":"Královéhradecký kraj","mesto":"Valdice","personal":419}},{"type":"Feature","id":32,"geometry":{"type":"Point","coordinates":[14.085587300000043,50.165951500000062]},"properties":{"OBJECTID":32,"nazev":"Věznice Vinařice","druh":"věznice","otevreni":1955,"adresa":"Vinařice 245, 273 07 Vinařice","sirka":50.165951499999998,"delka":14.0855873,"zarazeni":"Ostraha, střední a vysoký stupeň","specializace":"specializovaný pro výkon trestu odsouzených s poruchami duševními a poruchami chování\r\nvýkon trestu odsouzených s mentální retardací","kraj":"Středočeský kraj","mesto":"Vinařice","personal":333}},{"type":"Feature","id":33,"geometry":{"type":"Point","coordinates":[13.461600400000066,50.418684000000042]},"properties":{"OBJECTID":33,"nazev":"Věznice Všehrdy","druh":"věznice","otevreni":1958,"adresa":"Všehrdy 26, 430 01 Všehrdy","sirka":50.418683999999999,"delka":13.4616004,"zarazeni":"Věznice pro mladistvé, ostraha, nízký, střední a vysoký stupeň","specializace":"výkon trestního opatření odnětí svobody odsouzených s poruchami duševními a poruchami chování s individuálním zacházením\r\nvýkon trestního opatření odnětí svobody odsouzených trvale pracovně nezařaditelných\r\nvýkon trestu odsouzených s poruchou osobnosti a ","kraj":"Ústecký kraj","mesto":"Všehrdy","personal":235}},{"type":"Feature","id":34,"geometry":{"type":"Point","coordinates":[16.05426760000006,48.855910700000038]},"properties":{"OBJECTID":34,"nazev":"Věznice Znojmo","druh":"věznice","otevreni":1918,"adresa":"Dyjská 4, 669 02 Znojmo","sirka":48.855910700000003,"delka":16.054267599999999,"zarazeni":"Ostraha","specializace":"výkon ochranného léčení protitoxikomanického\r\nbezdrogová zóny s terapeutickým zacházením","kraj":"Jihomoravský kraj","mesto":"Znojmo","personal":163}},{"type":"Feature","id":35,"geometry":{"type":"Point","coordinates":[13.81892890000006,50.637276900000074]},"properties":{"OBJECTID":35,"nazev":"Vazební věznice Teplice","druh":"vazební věznice","otevreni":null,"adresa":"Daliborova stezka 2233 /1, 415 01 Teplice 1","sirka":50.637276900000003,"delka":13.8189289,"zarazeni":"Ostraha, střední a vysoký stupeň","specializace":null,"kraj":"Ústecký kraj","mesto":"Teplice","personal":138}}]}